{
  "type": "FeatureCollection",
  "features": [
    {
      "type": "Feature",
      "properties": {
        "norad_id": 34765,
        "name": "IRIDIUM 33 DEB",
        "group": "iridium-33-debris",
        "lat": -76.75133404030491,
        "lon": 12.236471301518522,
        "alt_km": 768.1345721542139,
        "timestamp": "2025-12-23T18:59:32.349975+00:00",
        "meta_object_name": "IRIDIUM 33 DEB",
        "meta_object_id": "1997-051LJ",
        "meta_epoch": "2025-12-23T02:58:27.844896",
        "meta_mean_motion": 14.40490027,
        "meta_eccentricity": 0.00166531,
        "meta_inclination": 86.3383,
        "meta_ra_of_asc_node": 28.3053,
        "meta_arg_of_pericenter": 176.053,
        "meta_mean_anomaly": 247.6854,
        "meta_ephemeris_type": 0,
        "meta_classification_type": "U",
        "meta_norad_cat_id": 34765,
        "meta_element_set_no": 999,
        "meta_rev_at_epoch": 87763,
        "meta_bstar": 0.00035770807,
        "meta_mean_motion_dot": 1.159e-05,
        "meta_mean_motion_ddot": 0,
        "tle_line1": "1 34765U 97051LJ  25357.12393339  .00001159  00000+0  35771-3 0  9993",
        "tle_line2": "2 34765  86.3383  28.3053 0016653 176.0530 247.6854 14.40490027877630"
      },
      "geometry": {
        "type": "Point",
        "coordinates": [
          12.236471301518522,
          -76.75133404030491
        ]
      }
    },
    {
      "type": "Feature",
      "properties": {
        "norad_id": 34833,
        "name": "IRIDIUM 33 DEB",
        "group": "iridium-33-debris",
        "lat": 37.580320659262554,
        "lon": -136.55127943535086,
        "alt_km": 711.9589541021705,
        "timestamp": "2025-12-23T18:59:32.349984+00:00",
        "meta_object_name": "IRIDIUM 33 DEB",
        "meta_object_id": "1997-051MH",
        "meta_epoch": "2025-12-21T03:45:30.832704",
        "meta_mean_motion": 14.52421073,
        "meta_eccentricity": 0.00214678,
        "meta_inclination": 86.3927,
        "meta_ra_of_asc_node": 47.3667,
        "meta_arg_of_pericenter": 72.8031,
        "meta_mean_anomaly": 341.7014,
        "meta_ephemeris_type": 0,
        "meta_classification_type": "U",
        "meta_norad_cat_id": 34833,
        "meta_element_set_no": 999,
        "meta_rev_at_epoch": 87837,
        "meta_bstar": 0.00044712979,
        "meta_mean_motion_dot": 1.848e-05,
        "meta_mean_motion_ddot": 0,
        "tle_line1": "1 34833U 97051MH  25355.15660686  .00001848  00000+0  44713-3 0  9993",
        "tle_line2": "2 34833  86.3927  47.3667 0021467  72.8031 341.7014 14.52421073878374"
      },
      "geometry": {
        "type": "Point",
        "coordinates": [
          -136.55127943535086,
          37.580320659262554
        ]
      }
    },
    {
      "type": "Feature",
      "properties": {
        "norad_id": 34870,
        "name": "IRIDIUM 33 DEB",
        "group": "iridium-33-debris",
        "lat": -7.700485943496542,
        "lon": -51.47806979462945,
        "alt_km": 654.9370847066093,
        "timestamp": "2025-12-23T18:59:32.349993+00:00",
        "meta_object_name": "IRIDIUM 33 DEB",
        "meta_object_id": "1997-051MQ",
        "meta_epoch": "2025-12-22T20:23:31.246080",
        "meta_mean_motion": 14.76611259,
        "meta_eccentricity": 0.00177501,
        "meta_inclination": 86.3115,
        "meta_ra_of_asc_node": 309.4529,
        "meta_arg_of_pericenter": 146.7714,
        "meta_mean_anomaly": 243.206,
        "meta_ephemeris_type": 0,
        "meta_classification_type": "U",
        "meta_norad_cat_id": 34870,
        "meta_element_set_no": 999,
        "meta_rev_at_epoch": 89060,
        "meta_bstar": 0.0014600541,
        "meta_mean_motion_dot": 0.0001025,
        "meta_mean_motion_ddot": 0,
        "tle_line1": "1 34870U 97051MQ  25356.84966720  .00010250  00000+0  14601-2 0  9998",
        "tle_line2": "2 34870  86.3115 309.4529 0017750 146.7714 243.2060 14.76611259890602"
      },
      "geometry": {
        "type": "Point",
        "coordinates": [
          -51.47806979462945,
          -7.700485943496542
        ]
      }
    },
    {
      "type": "Feature",
      "properties": {
        "norad_id": 34896,
        "name": "IRIDIUM 33 DEB",
        "group": "iridium-33-debris",
        "lat": 31.72845145407914,
        "lon": 139.4532786407416,
        "alt_km": 654.8290747184374,
        "timestamp": "2025-12-23T18:59:32.350002+00:00",
        "meta_object_name": "IRIDIUM 33 DEB",
        "meta_object_id": "1997-051MY",
        "meta_epoch": "2025-12-23T05:30:39.282048",
        "meta_mean_motion": 14.66371317,
        "meta_eccentricity": 0.00256051,
        "meta_inclination": 86.3298,
        "meta_ra_of_asc_node": 321.9796,
        "meta_arg_of_pericenter": 176.8175,
        "meta_mean_anomaly": 248.0263,
        "meta_ephemeris_type": 0,
        "meta_classification_type": "U",
        "meta_norad_cat_id": 34896,
        "meta_element_set_no": 999,
        "meta_rev_at_epoch": 87773,
        "meta_bstar": 0.00090985385,
        "meta_mean_motion_dot": 5.072e-05,
        "meta_mean_motion_ddot": 0,
        "tle_line1": "1 34896U 97051MY  25357.22962132  .00005072  00000+0  90985-3 0  9998",
        "tle_line2": "2 34896  86.3298 321.9796 0025605 176.8175 248.0263 14.66371317877734"
      },
      "geometry": {
        "type": "Point",
        "coordinates": [
          139.4532786407416,
          31.72845145407914
        ]
      }
    },
    {
      "type": "Feature",
      "properties": {
        "norad_id": 34926,
        "name": "IRIDIUM 33 DEB",
        "group": "iridium-33-debris",
        "lat": 49.32164994425793,
        "lon": 178.6321627146047,
        "alt_km": 734.828942208781,
        "timestamp": "2025-12-23T18:59:32.350011+00:00",
        "meta_object_name": "IRIDIUM 33 DEB",
        "meta_object_id": "1997-051NF",
        "meta_epoch": "2025-12-21T19:20:10.732992",
        "meta_mean_motion": 14.5478701,
        "meta_eccentricity": 0.00744409,
        "meta_inclination": 86.132,
        "meta_ra_of_asc_node": 4.0681,
        "meta_arg_of_pericenter": 261.3659,
        "meta_mean_anomaly": 276.799,
        "meta_ephemeris_type": 0,
        "meta_classification_type": "U",
        "meta_norad_cat_id": 34926,
        "meta_element_set_no": 999,
        "meta_rev_at_epoch": 86588,
        "meta_bstar": 0.0043404181,
        "meta_mean_motion_dot": 0.0001936,
        "meta_mean_motion_ddot": 0,
        "tle_line1": "1 34926U 97051NF  25355.80567978  .00019360  00000+0  43404-2 0  9991",
        "tle_line2": "2 34926  86.1320   4.0681 0074440 261.3659 276.7990 14.54787010865888"
      },
      "geometry": {
        "type": "Point",
        "coordinates": [
          178.6321627146047,
          49.32164994425793
        ]
      }
    },
    {
      "type": "Feature",
      "properties": {
        "norad_id": 34985,
        "name": "IRIDIUM 33 DEB",
        "group": "iridium-33-debris",
        "lat": 65.4070769503867,
        "lon": -135.8094502433994,
        "alt_km": 739.7537970535795,
        "timestamp": "2025-12-23T18:59:32.350020+00:00",
        "meta_object_name": "IRIDIUM 33 DEB",
        "meta_object_id": "1997-051NR",
        "meta_epoch": "2025-12-21T03:18:55.645056",
        "meta_mean_motion": 14.42041434,
        "meta_eccentricity": 0.00216435,
        "meta_inclination": 86.369,
        "meta_ra_of_asc_node": 53.2972,
        "meta_arg_of_pericenter": 191.5239,
        "meta_mean_anomaly": 198.031,
        "meta_ephemeris_type": 0,
        "meta_classification_type": "U",
        "meta_norad_cat_id": 34985,
        "meta_element_set_no": 999,
        "meta_rev_at_epoch": 87296,
        "meta_bstar": 0.00042163262,
        "meta_mean_motion_dot": 1.407e-05,
        "meta_mean_motion_ddot": 0,
        "tle_line1": "1 34985U 97051NR  25355.13814404  .00001407  00000+0  42163-3 0  9996",
        "tle_line2": "2 34985  86.3690  53.2972 0021643 191.5239 198.0310 14.42041434872968"
      },
      "geometry": {
        "type": "Point",
        "coordinates": [
          -135.8094502433994,
          65.4070769503867
        ]
      }
    },
    {
      "type": "Feature",
      "properties": {
        "norad_id": 35051,
        "name": "IRIDIUM 33 DEB",
        "group": "iridium-33-debris",
        "lat": -86.25455994415229,
        "lon": -96.82714053095586,
        "alt_km": 747.1922460201486,
        "timestamp": "2025-12-23T18:59:32.350029+00:00",
        "meta_object_name": "IRIDIUM 33 DEB",
        "meta_object_id": "1997-051NX",
        "meta_epoch": "2025-12-22T18:31:37.744896",
        "meta_mean_motion": 14.47639956,
        "meta_eccentricity": 0.0010302,
        "meta_inclination": 86.324,
        "meta_ra_of_asc_node": 4.4893,
        "meta_arg_of_pericenter": 63.2582,
        "meta_mean_anomaly": 296.9674,
        "meta_ephemeris_type": 0,
        "meta_classification_type": "U",
        "meta_norad_cat_id": 35051,
        "meta_element_set_no": 999,
        "meta_rev_at_epoch": 87141,
        "meta_bstar": 0.00060447572,
        "meta_mean_motion_dot": 2.248e-05,
        "meta_mean_motion_ddot": 0,
        "tle_line1": "1 35051U 97051NX  25356.77196464  .00002248  00000+0  60448-3 0  9991",
        "tle_line2": "2 35051  86.3240   4.4893 0010302  63.2582 296.9674 14.47639956871417"
      },
      "geometry": {
        "type": "Point",
        "coordinates": [
          -96.82714053095586,
          -86.25455994415229
        ]
      }
    }
  ]
}